#cV2021 12 29  0  0  0.00000000    1897   SLR   ECF FIT NSGF
## 2190 259200.00000000   180.00000000 59577 0.0000000000000
+    1   L56  0  0  0  0  0  0  0  0  0  0  0  0  0  0  0  0
+          0  0  0  0  0  0  0  0  0  0  0  0  0  0  0  0  0
+          0  0  0  0  0  0  0  0  0  0  0  0  0  0  0  0  0
+          0  0  0  0  0  0  0  0  0  0  0  0  0  0  0  0  0
+          0  0  0  0  0  0  0  0  0  0  0  0  0  0  0  0  0
++         0  0  0  0  0  0  0  0  0  0  0  0  0  0  0  0  0
++         0  0  0  0  0  0  0  0  0  0  0  0  0  0  0  0  0
++         0  0  0  0  0  0  0  0  0  0  0  0  0  0  0  0  0
++         0  0  0  0  0  0  0  0  0  0  0  0  0  0  0  0  0
++         0  0  0  0  0  0  0  0  0  0  0  0  0  0  0  0  0
%c L  cc UTC ccc cccc cccc cccc cccc ccccc ccccc ccccc ccccc
%c cc cc ccc ccc cccc cccc cccc cccc ccccc ccccc ccccc ccccc
%f  0.0000000  0.000000000  0.00000000000  0.000000000000000
%f  0.0000000  0.000000000  0.00000000000  0.000000000000000
%i    0    0    0    0      0      0      0      0         0
%i    0    0    0    0      0      0      0      0         0
/*                                                          
/* Earth-centered-fixed orbital predictions from SGF ILRS AC
/* The underlying ECF frame is that of IERS/ITRF            
/* Note: Solution based on 4-day long arc                   
/*                                                          
*  2021 12 31  9 48  0.00000000
PL56   2729.855430  -4471.341881  -4914.771412
VL56 -42786.916000  32189.684000 -53035.847000
*  2021 12 31  9 51  0.00000000
PL56   1925.361902  -3807.744267  -5778.466547
VL56 -46302.531000  41344.728000 -42653.191000
*  2021 12 31  9 54  0.00000000
PL56   1073.913952  -2991.125568  -6441.451373
VL56 -47995.621000  49135.657000 -30799.684000
*  2021 12 31  9 57  0.00000000
PL56    208.559148  -2048.932518  -6880.889901
VL56 -47851.164000  55249.895000 -17886.515000
*  2021 12 31 10  0  0.00000000
PL56   -638.018068  -1013.729679  -7081.674659
VL56 -45923.956000  59433.038000  -4358.802200
*  2021 12 31 10  3  0.00000000
PL56  -1434.715371     77.933074  -7036.903980
VL56 -42334.137000  61498.052000   9319.210100
*  2021 12 31 10  6  0.00000000
PL56  -2153.138139   1186.800020  -6748.097545
VL56 -37261.246000  61332.357000  22678.498000
*  2021 12 31 10  9  0.00000000
PL56  -2768.599466   2272.300369  -6225.149653
VL56 -30936.306000  58903.130000  35259.972000
*  2021 12 31 10 12  0.00000000
PL56  -3260.966398   3294.013929  -5486.023538
VL56 -23632.650000  54260.257000  46628.612000
*  2021 12 31 10 15  0.00000000
PL56  -3615.331185   4213.172456  -4556.185573
VL56 -15655.685000  47537.246000  56388.131000
*  2021 12 31 10 18  0.00000000
PL56  -3822.482694   4994.145996  -3467.777638
VL56  -7330.867400  38948.601000  64195.413000
*  2021 12 31 10 21  0.00000000
PL56  -3879.152163   5605.852186  -2258.542700
VL56   1009.171200  28783.858000  69773.227000
*  2021 12 31 10 24  0.00000000
PL56  -3788.024176   6023.029690   -970.536286
VL56   9037.849900  17398.444000  72921.381000
*  2021 12 31 10 27  0.00000000
PL56  -3557.507597   6227.317761    351.343723
VL56  16447.942000   5201.193900  73525.431000
*  2021 12 31 10 30  0.00000000
PL56  -3201.271185   6208.078442   1660.954620
VL56  22964.173000  -7361.327400  71562.021000
*  2021 12 31 10 33  0.00000000
PL56  -2737.561736   5962.917390   2912.570118
VL56  28354.914000 -19822.858000  67100.626000
*  2021 12 31 10 36  0.00000000
PL56  -2188.333494   5497.866453   4062.525140
VL56  32441.130000 -31716.621000  60299.973000
*  2021 12 31 10 39  0.00000000
PL56  -1578.243379   4827.227012   5070.766412
VL56  35102.365000 -42593.608000  51401.267000
*  2021 12 31 10 42  0.00000000
PL56   -933.562600   3973.090064   5902.253925
VL56  36280.017000 -52040.091000  40718.436000
*  2021 12 31 10 45  0.00000000
PL56   -281.055484   2964.557740   6528.162238
VL56  35977.626000 -59693.130000  28625.848000
*  2021 12 31 10 48  0.00000000
PL56    353.120596   1836.706406   6926.845182
VL56  34258.522000 -65253.817000  15544.467000
*  2021 12 31 10 51  0.00000000
PL56    944.451841    629.338316   7084.544884
VL56  31241.104000 -68497.571000   1927.297700
*  2021 12 31 10 54  0.00000000
PL56   1471.004852   -614.433638   6995.833582
VL56  27092.450000 -69282.179000 -11755.546000
*  2021 12 31 10 57  0.00000000
PL56   1914.232721  -1849.721011   6663.786595
VL56  22020.321000 -67553.343000 -25031.946000
*  2021 12 31 11  0  0.00000000
PL56   2259.627178  -3031.473654   6099.884129
VL56  16264.073000 -63347.629000 -37442.644000
*  2021 12 31 11  3  0.00000000
PL56   2497.197556  -4116.123579   5323.640026
VL56  10084.549000 -56792.928000 -48556.771000
*  2021 12 31 11  6  0.00000000
PL56   2621.760020  -5063.203906   4361.960462
VL56   3753.186700 -48105.189000 -57986.208000
*  2021 12 31 11  9  0.00000000
PL56   2633.029505  -5836.886787   3248.245943
VL56  -2459.046300 -37582.610000 -65399.755000
*  2021 12 31 11 12  0.00000000
PL56   2535.508034  -6407.381521   2021.252081
VL56  -8293.121100 -25595.911000 -70535.572000
*  2021 12 31 11 15  0.00000000
PL56   2338.169401  -6752.125797    723.741355
VL56 -13512.937000 -12574.983000 -73211.683000
*  2021 12 31 11 18  0.00000000
PL56   2053.956332  -6856.713751   -599.024366
VL56 -17915.147000   1006.477600 -73333.422000
*  2021 12 31 11 21  0.00000000
PL56   1699.110215  -6715.516661  -1900.900512
VL56 -21337.927000  14650.338000 -70897.864000
*  2021 12 31 11 24  0.00000000
PL56   1292.360549  -6331.950488  -3136.516580
VL56 -23667.508000  27853.146000 -65993.470000
*  2021 12 31 11 27  0.00000000
PL56    854.020187  -5718.378341  -4262.892942
VL56 -24842.127000  40127.544000 -58796.378000
*  2021 12 31 11 30  0.00000000
PL56    405.037828  -4895.660152  -5240.949299
VL56 -24852.891000  51019.876000 -49562.204000
*  2021 12 31 11 33  0.00000000
PL56    -33.949640  -3892.382761  -6036.848754
VL56 -23742.899000  60127.660000 -38616.007000
*  2021 12 31 11 36  0.00000000
PL56   -443.520630  -2743.810671  -6623.134586
VL56 -21603.356000  67113.591000 -26339.445000
*  2021 12 31 11 39  0.00000000
PL56   -806.289690  -1490.606706  -6979.629609
VL56 -18568.216000  71716.803000 -13157.310000
*  2021 12 31 11 42  0.00000000
PL56  -1107.614993   -177.376422  -7094.082174
VL56 -14807.106000  73761.265000    476.952990
*  2021 12 31 11 45  0.00000000
PL56  -1336.168971   1148.913712  -6962.552049
VL56 -10517.211000  73161.354000  14095.787000
*  2021 12 31 11 48  0.00000000
PL56  -1484.355273   2440.594500  -6589.533118
VL56  -5914.391700  69924.934000  27232.002000
*  2021 12 31 11 51  0.00000000
PL56  -1548.560699   3650.984035  -5987.816716
VL56  -1223.795200  64153.758000  39433.202000
*  2021 12 31 11 54  0.00000000
PL56  -1529.235738   4736.066932  -5178.094465
VL56   3329.845800  56041.725000  50276.436000
*  2021 12 31 11 57  0.00000000
PL56  -1430.799864   5656.110432  -4188.298343
VL56   7531.878800  45869.711000  59382.639000
*  2021 12 31 12  0  0.00000000
PL56  -1261.373701   6377.158911  -3052.683417
VL56  11187.268000  33996.999000  66430.493000
*  2021 12 31 12  3  0.00000000
PL56  -1032.344614   6872.341991  -1810.673371
VL56  14129.464000  20849.311000  71168.897000
*  2021 12 31 12  6  0.00000000
PL56   -757.782790   7122.938932   -505.500744
VL56  16228.092000   6903.595600  73427.273000
*  2021 12 31 12  9  0.00000000
PL56   -453.732181   7119.142567    817.314491
VL56  17395.105000  -7329.855400  73123.040000
*  2021 12 31 12 12  0.00000000
PL56   -137.408382   6860.479301   2111.592498
VL56  17588.826000 -21327.800000  70265.815000
*  2021 12 31 12 15  0.00000000
PL56    173.653901   6355.849223   3332.156400
VL56  16815.514000 -34575.482000  64956.923000
*  2021 12 31 12 18  0.00000000
PL56    462.459178   5623.190486   4436.446090
VL56  15128.508000 -46586.712000  57384.804000
*  2021 12 31 12 21  0.00000000
PL56    713.375016   4688.796697   5386.026352
VL56  12625.236000 -56922.224000  47817.822000
*  2021 12 31 12 24  0.00000000
PL56    912.880871   3586.306650   6147.926635
VL56   9441.927700 -65207.544000  36592.716000
*  2021 12 31 12 27  0.00000000
PL56   1050.208559   2355.437139   6695.757351
VL56   5746.843300 -71143.843000  24101.599000
*  2021 12 31 12 30  0.00000000
PL56   1117.846190   1040.512811   7010.587942
VL56   1732.115900 -74519.163000  10778.745000
*  2021 12 31 12 33  0.00000000
PL56   1111.888076   -311.150773   7081.562344
VL56  -2395.202500 -75214.023000  -2915.300700
*  2021 12 31 12 36  0.00000000
PL56   1032.219774  -1650.949656   6906.246399
VL56  -6422.522800 -73205.110000 -16507.874000
*  2021 12 31 12 39  0.00000000
PL56    882.531545  -2930.733233   6490.707087
VL56 -10141.293000 -68565.969000 -29529.648000
*  2021 12 31 12 42  0.00000000
PL56    670.159151  -4104.533936   5849.315602
VL56 -13356.565000 -61464.894000 -41529.866000
*  2021 12 31 12 45  0.00000000
PL56    405.757943  -5130.224876   5004.274608
VL56 -15895.829000 -52159.195000 -52091.387000
*  2021 12 31 12 48  0.00000000
PL56    102.824776  -5971.052760   3984.888341
VL56 -17617.178000 -40987.169000 -60844.631000
*  2021 12 31 12 51  0.00000000
PL56   -222.919911  -6597.002559   2826.581956
VL56 -18416.576000 -28356.972000 -67481.333000
*  2021 12 31 12 54  0.00000000
PL56   -554.267843  -6985.926822   1569.685226
VL56 -18233.526000 -14731.903000 -71766.636000
*  2021 12 31 12 57  0.00000000
PL56   -873.342344  -7124.384348    258.022943
VL56 -17054.704000   -613.010850 -73548.420000
*  2021 12 31 13  0  0.00000000
PL56  -1162.464345  -7008.147162  -1062.643130
VL56 -14915.360000  13480.606000 -72764.291000
*  2021 12 31 13  3  0.00000000
PL56  -1405.018781  -6642.336213  -2346.255033
VL56 -11898.068000  27032.705000 -69443.815000
*  2021 12 31 13  6  0.00000000
PL56  -1586.277555  -6041.185459  -3548.104777
VL56  -8129.180900  39550.270000 -63706.915000
*  2021 12 31 13  9  0.00000000
PL56  -1694.140954  -5227.449293  -4626.420748
VL56  -3773.263900  50582.678000 -55758.716000
EOF
